KORSAT-2                
1 62377U 24247A   26068.41070335  .00005163  00000+0  43498-3 0  9994
2 62377  45.4085 225.0391 0009773  57.7708 302.4117 14.99271316 66592
STARLINK-35059          
1 65454U 25194W   26068.55023958  .00003669  00000+0  29003-3 0  9994
2 65454  97.6037 284.8767 0001888  81.8838 278.2601 15.01263903 29660
